{"type": "FeatureCollection", "features": [ {"type": "Feature", "properties": {"norad_id": 43010, "name": "FENGYUN 3D", "group": "weather", "lat": 17.91856216830073, "lon": 146.88809970620068, "alt_km": 825.7099931728562, "timestamp": "2025-12-23T11:34:47.828616+00:00", "meta": {"OBJECT_NAME": "FENGYUN 3D", "OBJECT_ID": "2017-072A", "EPOCH": "2025-12-23T04:03:17.217792", "MEAN_MOTION": 14.19688025, "ECCENTRICITY": 0.0001429, "INCLINATION": 98.9906, "RA_OF_ASC_NODE": 323.6355, "ARG_OF_PERICENTER": 151.8558, "MEAN_ANOMALY": 208.2695, "EPHEMERIS_TYPE": 0, "CLASSIFICATION_TYPE": "U", "NORAD_CAT_ID": 43010, "ELEMENT_SET_NO": 999, "REV_AT_EPOCH": 42001, "BSTAR": 0.00020765, "MEAN_MOTION_DOT": 3.93e-06, "MEAN_MOTION_DDOT": 0}, "tle": {"line1": "1 43010U 17072A   25357.16894928  .00000393  00000+0  20765-3 0  9991", "line2": "2 43010  98.9906 323.6355 0001429 151.8558 208.2695 14.19688025420010"}}, "geometry": {"type": "Point", "coordinates": [146.88809970620068, 17.91856216830073]}}, {"type": "Feature", "properties": {"norad_id": 43013, "name": "NOAA 20 (JPSS-1)", "group": "weather", "lat": -51.500852062953435, "lon": -55.158335738526944, "alt_km": 834.6876715196322, "timestamp": "2025-12-23T11:34:47.828625+00:00", "meta": {"OBJECT_NAME": "NOAA 20 (JPSS-1)", "OBJECT_ID": "2017-073A", "EPOCH": "2025-12-23T01:40:34.594176", "MEAN_MOTION": 14.19528369, "ECCENTRICITY": 0.0002105, "INCLINATION": 98.7613, "RA_OF_ASC_NODE": 293.2542, "ARG_OF_PERICENTER": 72.5078, "MEAN_ANOMALY": 287.6328, "EPHEMERIS_TYPE": 0, "CLASSIFICATION_TYPE": "U", "NORAD_CAT_ID": 43013, "ELEMENT_SET_NO": 999, "REV_AT_EPOCH": 41948, "BSTAR": 6.6058e-05, "MEAN_MOTION_DOT": 9.5e-07, "MEAN_MOTION_DDOT": 0}, "tle": {"line1": "1 43013U 17073A   25357.06984484  .00000095  00000+0  66058-4 0  9996", "line2": "2 43013  98.7613 293.2542 0002105  72.5078 287.6328 14.19528369419481"}}, "geometry": {"type": "Point", "coordinates": [-55.158335738526944, -51.500852062953435]}}, {"type": "Feature", "properties": {"norad_id": 43226, "name": "GOES 17", "group": "weather", "lat": 0.48826800805893955, "lon": 176.42778062365593, "alt_km": 35788.672602415274, "timestamp": "2025-12-23T11:34:47.828636+00:00", "meta": {"OBJECT_NAME": "GOES 17", "OBJECT_ID": "2018-022A", "EPOCH": "2025-12-23T01:55:32.889792", "MEAN_MOTION": 1.00272696, "ECCENTRICITY": 0.000299, "INCLINATION": 0.4827, "RA_OF_ASC_NODE": 89.0912, "ARG_OF_PERICENTER": 190.5637, "MEAN_ANOMALY": 111.6024, "EPHEMERIS_TYPE": 0, "CLASSIFICATION_TYPE": "U", "NORAD_CAT_ID": 43226, "ELEMENT_SET_NO": 999, "REV_AT_EPOCH": 2865, "BSTAR": 0, "MEAN_MOTION_DOT": -1.62e-06, "MEAN_MOTION_DDOT": 0}, "tle": {"line1": "1 43226U 18022A   25357.08024178 -.00000162  00000+0  00000+0 0  9990", "line2": "2 43226   0.4827  89.0912 0002990 190.5637 111.6024  1.00272696 28659"}}, "geometry": {"type": "Point", "coordinates": [176.42778062365593, 0.48826800805893955]}}, {"type": "Feature", "properties": {"norad_id": 43491, "name": "FENGYUN 2H", "group": "weather", "lat": -2.575030566274031, "lon": -14.666741462186183, "alt_km": 35788.02312661078, "timestamp": "2025-12-23T11:34:47.828648+00:00", "meta": {"OBJECT_NAME": "FENGYUN 2H", "OBJECT_ID": "2018-050A", "EPOCH": "2025-12-23T01:31:34.253760", "MEAN_MOTION": 1.00270908, "ECCENTRICITY": 0.0002368, "INCLINATION": 2.5759, "RA_OF_ASC_NODE": 81.2213, "ARG_OF_PERICENTER": 166.1464, "MEAN_ANOMALY": 306.7296, "EPHEMERIS_TYPE": 0, "CLASSIFICATION_TYPE": "U", "NORAD_CAT_ID": 43491, "ELEMENT_SET_NO": 999, "REV_AT_EPOCH": 2767, "BSTAR": 0, "MEAN_MOTION_DOT": -1.1e-06, "MEAN_MOTION_DDOT": 0}, "tle": {"line1": "1 43491U 18050A   25357.06359090 -.00000110  00000+0  00000+0 0  9990", "line2": "2 43491   2.5759  81.2213 0002368 166.1464 306.7296  1.00270908 27677"}}, "geometry": {"type": "Point", "coordinates": [-14.666741462186183, -2.575030566274031]}}, {"type": "Feature", "properties": {"norad_id": 43689, "name": "METOP-C", "group": "weather", "lat": 15.342770339433843, "lon": -122.50795904745549, "alt_km": 821.4828670003972, "timestamp": "2025-12-23T11:34:47.828668+00:00", "meta": {"OBJECT_NAME": "METOP-C", "OBJECT_ID": "2018-087A", "EPOCH": "2025-12-23T04:03:07.026912", "MEAN_MOTION": 14.21488295, "ECCENTRICITY": 7.36e-05, "INCLINATION": 98.6914, "RA_OF_ASC_NODE": 54.7779, "ARG_OF_PERICENTER": 19.9929, "MEAN_ANOMALY": 340.1277, "EPHEMERIS_TYPE": 0, "CLASSIFICATION_TYPE": "U", "NORAD_CAT_ID": 43689, "ELEMENT_SET_NO": 999, "REV_AT_EPOCH": 36982, "BSTAR": 8.4238e-05, "MEAN_MOTION_DOT": 1.41e-06, "MEAN_MOTION_DDOT": 0}, "tle": {"line1": "1 43689U 18087A   25357.16883133  .00000141  00000+0  84238-4 0  9993", "line2": "2 43689  98.6914  54.7779 0000736  19.9929 340.1277 14.21488295369829"}}, "geometry": {"type": "Point", "coordinates": [-122.50795904745549, 15.342770339433843]}}, {"type": "Feature", "properties": {"norad_id": 43823, "name": "GEO-KOMPSAT-2A", "group": "weather", "lat": -0.03458249080332691, "lon": 34.21967226782964, "alt_km": 35785.94899502979, "timestamp": "2025-12-23T11:34:47.828701+00:00", "meta": {"OBJECT_NAME": "GEO-KOMPSAT-2A", "OBJECT_ID": "2018-100A", "EPOCH": "2025-12-22T22:20:09.233952", "MEAN_MOTION": 1.00269844, "ECCENTRICITY": 3.55e-05, "INCLINATION": 0.0514, "RA_OF_ASC_NODE": 125.2489, "ARG_OF_PERICENTER": 328.4521, "MEAN_ANOMALY": 101.3281, "EPHEMERIS_TYPE": 0, "CLASSIFICATION_TYPE": "U", "NORAD_CAT_ID": 43823, "ELEMENT_SET_NO": 999, "REV_AT_EPOCH": 2586, "BSTAR": 0, "MEAN_MOTION_DOT": -3.22e-06, "MEAN_MOTION_DDOT": 0}, "tle": {"line1": "1 43823U 18100A   25356.93066243 -.00000322  00000+0  00000+0 0  9990", "line2": "2 43823   0.0514 125.2489 0000355 328.4521 101.3281  1.00269844 25862"}}, "geometry": {"type": "Point", "coordinates": [34.21967226782964, -0.03458249080332691]}}, {"type": "Feature", "properties": {"norad_id": 44387, "name": "METEOR-M2 2", "group": "weather", "lat": -12.908639562885751, "lon": -20.59955789206116, "alt_km": 816.2318828608932, "timestamp": "2025-12-23T11:34:47.828718+00:00", "meta": {"OBJECT_NAME": "METEOR-M2 2", "OBJECT_ID": "2019-038A", "EPOCH": "2025-12-23T04:53:49.965792", "MEAN_MOTION": 14.24296919, "ECCENTRICITY": 0.0001717, "INCLINATION": 98.8978, "RA_OF_ASC_NODE": 337.061, "ARG_OF_PERICENTER": 127.6034, "MEAN_ANOMALY": 232.5301, "EPHEMERIS_TYPE": 0, "CLASSIFICATION_TYPE": "U", "NORAD_CAT_ID": 44387, "ELEMENT_SET_NO": 999, "REV_AT_EPOCH": 33624, "BSTAR": 0.00022943, "MEAN_MOTION_DOT": 4.84e-06, "MEAN_MOTION_DDOT": 0}, "tle": {"line1": "1 44387U 19038A   25357.20405053  .00000484  00000+0  22943-3 0  9996", "line2": "2 44387  98.8978 337.0610 0001717 127.6034 232.5301 14.24296919336247"}}, "geometry": {"type": "Point", "coordinates": [-20.59955789206116, -12.908639562885751]}}, {"type": "Feature", "properties": {"norad_id": 47719, "name": "ARKTIKA-M 1", "group": "weather", "lat": 22.34695747449199, "lon": -109.39998970767184, "alt_km": 11796.679386333373, "timestamp": "2025-12-23T11:34:47.828740+00:00", "meta": {"OBJECT_NAME": "ARKTIKA-M 1", "OBJECT_ID": "2021-016A", "EPOCH": "2025-12-22T01:06:25.193952", "MEAN_MOTION": 2.00630804, "ECCENTRICITY": 0.72089477, "INCLINATION": 63.1758, "RA_OF_ASC_NODE": 82.7279, "ARG_OF_PERICENTER": 269.1606, "MEAN_ANOMALY": 15.5458, "EPHEMERIS_TYPE": 0, "CLASSIFICATION_TYPE": "U", "NORAD_CAT_ID": 47719, "ELEMENT_SET_NO": 999, "REV_AT_EPOCH": 3523, "BSTAR": 0, "MEAN_MOTION_DOT": -8.3e-07, "MEAN_MOTION_DDOT": 0}, "tle": {"line1": "1 47719U 21016A   25356.04612493 -.00000083  00000+0  00000+0 0  9998", "line2": "2 47719  63.1758  82.7279 7208947 269.1606  15.5458  2.00630804 35236"}}, "geometry": {"type": "Point", "coordinates": [-109.39998970767184, 22.34695747449199]}}, {"type": "Feature", "properties": {"norad_id": 49008, "name": "FENGYUN 3E", "group": "weather", "lat": 43.53251680302055, "lon": -173.7132875456463, "alt_km": 821.77302570131, "timestamp": "2025-12-23T11:34:47.828757+00:00", "meta": {"OBJECT_NAME": "FENGYUN 3E", "OBJECT_ID": "2021-062A", "EPOCH": "2025-12-23T05:52:08.549760", "MEAN_MOTION": 14.19881364, "ECCENTRICITY": 8.38e-05, "INCLINATION": 98.7471, "RA_OF_ASC_NODE": 357.6408, "ARG_OF_PERICENTER": 197.3277, "MEAN_ANOMALY": 162.7871, "EPHEMERIS_TYPE": 0, "CLASSIFICATION_TYPE": "U", "NORAD_CAT_ID": 49008, "ELEMENT_SET_NO": 999, "REV_AT_EPOCH": 23161, "BSTAR": 2.078e-05, "MEAN_MOTION_DOT": 0, "MEAN_MOTION_DDOT": 0}, "tle": {"line1": "1 49008U 21062A   25357.24454340  .00000000  00000+0  20780-4 0  9990", "line2": "2 49008  98.7471 357.6408 0000838 197.3277 162.7871 14.19881364231617"}}, "geometry": {"type": "Point", "coordinates": [-173.7132875456463, 43.53251680302055]}}, {"type": "Feature", "properties": {"norad_id": 51850, "name": "GOES 18", "group": "weather", "lat": -0.00532124920394934, "lon": 128.9651868924244, "alt_km": 35787.68213691366, "timestamp": "2025-12-23T11:34:47.828773+00:00", "meta": {"OBJECT_NAME": "GOES 18", "OBJECT_ID": "2022-021A", "EPOCH": "2025-12-23T02:12:34.167168", "MEAN_MOTION": 1.00270781, "ECCENTRICITY": 3.38e-05, "INCLINATION": 0.0141, "RA_OF_ASC_NODE": 158.9647, "ARG_OF_PERICENTER": 168.0068, "MEAN_ANOMALY": 21.0587, "EPHEMERIS_TYPE": 0, "CLASSIFICATION_TYPE": "U", "NORAD_CAT_ID": 51850, "ELEMENT_SET_NO": 999, "REV_AT_EPOCH": 482, "BSTAR": 0, "MEAN_MOTION_DOT": 1.18e-06, "MEAN_MOTION_DDOT": 0}, "tle": {"line1": "1 51850U 22021A   25357.09206212  .00000118  00000+0  00000+0 0  9998", "line2": "2 51850   0.0141 158.9647 0000338 168.0068  21.0587  1.00270781  4823"}}, "geometry": {"type": "Point", "coordinates": [128.9651868924244, -0.00532124920394934]}}]}